[{"OBJECT_NAME":"STARLINK-37139","OBJECT_ID":"2026-057Z","EPOCH":"2026-04-03T14:00:03.000384","MEAN_MOTION":15.87633367,"ECCENTRICITY":0.00016608,"INCLINATION":97.2735,"RA_OF_ASC_NODE":217.1921,"ARG_OF_PERICENTER":69.106,"MEAN_ANOMALY":112.3289,"EPHEMERIS_TYPE":0,"CLASSIFICATION_TYPE":"U","NORAD_CAT_ID":68317,"ELEMENT_SET_NO":999,"REV_AT_EPOCH":301,"BSTAR":-0.0073403518,"MEAN_MOTION_DOT":-0.01692567,"MEAN_MOTION_DDOT":0},{"OBJECT_NAME":"STARLINK-37113","OBJECT_ID":"2026-057AA","EPOCH":"2026-04-03T14:00:03.000384","MEAN_MOTION":15.87565412,"ECCENTRICITY":0.00016776,"INCLINATION":97.2731,"RA_OF_ASC_NODE":217.1962,"ARG_OF_PERICENTER":66.8046,"MEAN_ANOMALY":124.0042,"EPHEMERIS_TYPE":0,"CLASSIFICATION_TYPE":"U","NORAD_CAT_ID":68318,"ELEMENT_SET_NO":999,"REV_AT_EPOCH":326,"BSTAR":-0.0074604517,"MEAN_MOTION_DOT":-0.01711558,"MEAN_MOTION_DDOT":0},{"OBJECT_NAME":"PROGRESS-MS 33","OBJECT_ID":"2026-058A","EPOCH":"2026-04-03T21:00:58.615488","MEAN_MOTION":15.48754008,"ECCENTRICITY":0.0006253,"INCLINATION":51.6327,"RA_OF_ASC_NODE":307.8415,"ARG_OF_PERICENTER":268.9169,"MEAN_ANOMALY":91.1103,"EPHEMERIS_TYPE":0,"CLASSIFICATION_TYPE":"U","NORAD_CAT_ID":68319,"ELEMENT_SET_NO":999,"REV_AT_EPOCH":171,"BSTAR":0.00023534,"MEAN_MOTION_DOT":0.00012431,"MEAN_MOTION_DDOT":0},{"OBJECT_NAME":"STARLINK-36987","OBJECT_ID":"2026-059A","EPOCH":"2026-04-03T18:59:07.494144","MEAN_MOTION":15.81002444,"ECCENTRICITY":0.0001071,"INCLINATION":53.1593,"RA_OF_ASC_NODE":237.0928,"ARG_OF_PERICENTER":64.1086,"MEAN_ANOMALY":296.0047,"EPHEMERIS_TYPE":0,"CLASSIFICATION_TYPE":"U","NORAD_CAT_ID":68321,"ELEMENT_SET_NO":999,"REV_AT_EPOCH":194,"BSTAR":0.0024871,"MEAN_MOTION_DOT":0.00524315,"MEAN_MOTION_DDOT":0},{"OBJECT_NAME":"STARLINK-37088","OBJECT_ID":"2026-059B","EPOCH":"2026-04-03T20:28:00.380352","MEAN_MOTION":15.81041274,"ECCENTRICITY":0.000163,"INCLINATION":53.1589,"RA_OF_ASC_NODE":236.7654,"ARG_OF_PERICENTER":36.6236,"MEAN_ANOMALY":323.4898,"EPHEMERIS_TYPE":0,"CLASSIFICATION_TYPE":"U","NORAD_CAT_ID":68322,"ELEMENT_SET_NO":999,"REV_AT_EPOCH":195,"BSTAR":0.0031722,"MEAN_MOTION_DOT":0.00682732,"MEAN_MOTION_DDOT":0},{"OBJECT_NAME":"STARLINK-36983","OBJECT_ID":"2026-059C","EPOCH":"2026-04-03T18:58:02.887680","MEAN_MOTION":15.80989623,"ECCENTRICITY":0.0001107,"INCLINATION":53.1587,"RA_OF_ASC_NODE":237.0876,"ARG_OF_PERICENTER":81.13,"MEAN_ANOMALY":278.9848,"EPHEMERIS_TYPE":0,"CLASSIFICATION_TYPE":"U","NORAD_CAT_ID":68323,"ELEMENT_SET_NO":999,"REV_AT_EPOCH":194,"BSTAR":0.0026004,"MEAN_MOTION_DOT":0.00549536,"MEAN_MOTION_DDOT":0},{"OBJECT_NAME":"STARLINK-37164","OBJECT_ID":"2026-059D","EPOCH":"2026-04-03T20:26:55.429152","MEAN_MOTION":15.81060191,"ECCENTRICITY":0.0001279,"INCLINATION":53.1586,"RA_OF_ASC_NODE":236.7602,"ARG_OF_PERICENTER":82.1189,"MEAN_ANOMALY":277.9979,"EPHEMERIS_TYPE":0,"CLASSIFICATION_TYPE":"U","NORAD_CAT_ID":68324,"ELEMENT_SET_NO":999,"REV_AT_EPOCH":308,"BSTAR":0.0031667,"MEAN_MOTION_DOT":0.00682125,"MEAN_MOTION_DDOT":0},{"OBJECT_NAME":"STARLINK-36309","OBJECT_ID":"2026-059E","EPOCH":"2026-04-03T18:54:48.067776","MEAN_MOTION":15.80899895,"ECCENTRICITY":0.0002576,"INCLINATION":53.16,"RA_OF_ASC_NODE":237.0729,"ARG_OF_PERICENTER":163.2763,"MEAN_ANOMALY":196.8345,"EPHEMERIS_TYPE":0,"CLASSIFICATION_TYPE":"U","NORAD_CAT_ID":68325,"ELEMENT_SET_NO":999,"REV_AT_EPOCH":194,"BSTAR":0.0012823,"MEAN_MOTION_DOT":0.002605,"MEAN_MOTION_DDOT":0},{"OBJECT_NAME":"STARLINK-37206","OBJECT_ID":"2026-059F","EPOCH":"2026-04-03T20:24:45.765216","MEAN_MOTION":15.80951445,"ECCENTRICITY":0.0001602,"INCLINATION":53.1594,"RA_OF_ASC_NODE":236.7499,"ARG_OF_PERICENTER":148.2423,"MEAN_ANOMALY":211.8696,"EPHEMERIS_TYPE":0,"CLASSIFICATION_TYPE":"U","NORAD_CAT_ID":68326,"ELEMENT_SET_NO":999,"REV_AT_EPOCH":195,"BSTAR":0.0018272,"MEAN_MOTION_DOT":0.00377504,"MEAN_MOTION_DDOT":0},{"OBJECT_NAME":"STARLINK-37199","OBJECT_ID":"2026-059G","EPOCH":"2026-04-03T20:23:39.718464","MEAN_MOTION":15.8098391,"ECCENTRICITY":0.00032,"INCLINATION":53.159,"RA_OF_ASC_NODE":236.7452,"ARG_OF_PERICENTER":70.62,"MEAN_ANOMALY":289.5169,"EPHEMERIS_TYPE":0,"CLASSIFICATION_TYPE":"U","NORAD_CAT_ID":68327,"ELEMENT_SET_NO":999,"REV_AT_EPOCH":195,"BSTAR":0.0018099,"MEAN_MOTION_DOT":0.00374369,"MEAN_MOTION_DDOT":0},{"OBJECT_NAME":"STARLINK-36245","OBJECT_ID":"2026-059H","EPOCH":"2026-04-03T18:50:29.344704","MEAN_MOTION":15.80926286,"ECCENTRICITY":9.1e-5,"INCLINATION":53.16,"RA_OF_ASC_NODE":237.0521,"ARG_OF_PERICENTER":93.663,"MEAN_ANOMALY":266.4497,"EPHEMERIS_TYPE":0,"CLASSIFICATION_TYPE":"U","NORAD_CAT_ID":68328,"ELEMENT_SET_NO":999,"REV_AT_EPOCH":194,"BSTAR":0.0017063,"MEAN_MOTION_DOT":0.00350986,"MEAN_MOTION_DDOT":0},{"OBJECT_NAME":"STARLINK-37204","OBJECT_ID":"2026-059J","EPOCH":"2026-04-03T18:51:34.125696","MEAN_MOTION":15.80936615,"ECCENTRICITY":6.71e-5,"INCLINATION":53.1601,"RA_OF_ASC_NODE":237.0578,"ARG_OF_PERICENTER":84.7573,"MEAN_ANOMALY":275.3526,"EPHEMERIS_TYPE":0,"CLASSIFICATION_TYPE":"U","NORAD_CAT_ID":68329,"ELEMENT_SET_NO":999,"REV_AT_EPOCH":194,"BSTAR":0.0018556,"MEAN_MOTION_DOT":0.00383411,"MEAN_MOTION_DDOT":0},{"OBJECT_NAME":"STARLINK-37001","OBJECT_ID":"2026-059K","EPOCH":"2026-04-03T18:49:23.901024","MEAN_MOTION":15.81007337,"ECCENTRICITY":8.65e-5,"INCLINATION":53.1599,"RA_OF_ASC_NODE":237.0471,"ARG_OF_PERICENTER":94.4984,"MEAN_ANOMALY":265.6138,"EPHEMERIS_TYPE":0,"CLASSIFICATION_TYPE":"U","NORAD_CAT_ID":68330,"ELEMENT_SET_NO":999,"REV_AT_EPOCH":194,"BSTAR":0.0025439,"MEAN_MOTION_DOT":0.00537266,"MEAN_MOTION_DDOT":0},{"OBJECT_NAME":"STARLINK-36932","OBJECT_ID":"2026-059L","EPOCH":"2026-04-03T18:48:18.999072","MEAN_MOTION":15.80964848,"ECCENTRICITY":0.0001069,"INCLINATION":53.1599,"RA_OF_ASC_NODE":237.0419,"ARG_OF_PERICENTER":131.6929,"MEAN_ANOMALY":228.4185,"EPHEMERIS_TYPE":0,"CLASSIFICATION_TYPE":"U","NORAD_CAT_ID":68331,"ELEMENT_SET_NO":999,"REV_AT_EPOCH":194,"BSTAR":0.0021408,"MEAN_MOTION_DOT":0.00446305,"MEAN_MOTION_DDOT":0},{"OBJECT_NAME":"STARLINK-37205","OBJECT_ID":"2026-059M","EPOCH":"2026-04-03T18:47:14.309664","MEAN_MOTION":15.80998335,"ECCENTRICITY":0.0001271,"INCLINATION":53.1596,"RA_OF_ASC_NODE":237.0368,"ARG_OF_PERICENTER":55.1309,"MEAN_ANOMALY":304.9833,"EPHEMERIS_TYPE":0,"CLASSIFICATION_TYPE":"U","NORAD_CAT_ID":68332,"ELEMENT_SET_NO":999,"REV_AT_EPOCH":194,"BSTAR":0.0024398,"MEAN_MOTION_DOT":0.00513574,"MEAN_MOTION_DDOT":0},{"OBJECT_NAME":"STARLINK-37180","OBJECT_ID":"2026-059N","EPOCH":"2026-04-03T18:46:09.858720","MEAN_MOTION":15.80957496,"ECCENTRICITY":0.0001245,"INCLINATION":53.1597,"RA_OF_ASC_NODE":237.0315,"ARG_OF_PERICENTER":145.0278,"MEAN_ANOMALY":215.0827,"EPHEMERIS_TYPE":0,"CLASSIFICATION_TYPE":"U","NORAD_CAT_ID":68333,"ELEMENT_SET_NO":999,"REV_AT_EPOCH":194,"BSTAR":0.0021511,"MEAN_MOTION_DOT":0.0044841,"MEAN_MOTION_DDOT":0},{"OBJECT_NAME":"STARLINK-37191","OBJECT_ID":"2026-059P","EPOCH":"2026-04-03T18:45:05.213376","MEAN_MOTION":15.80972872,"ECCENTRICITY":0.0001282,"INCLINATION":53.1599,"RA_OF_ASC_NODE":237.0268,"ARG_OF_PERICENTER":147.2418,"MEAN_ANOMALY":212.8685,"EPHEMERIS_TYPE":0,"CLASSIFICATION_TYPE":"U","NORAD_CAT_ID":68334,"ELEMENT_SET_NO":999,"REV_AT_EPOCH":194,"BSTAR":0.0024842,"MEAN_MOTION_DOT":0.00522883,"MEAN_MOTION_DDOT":0}]
